ONEWEB-0161             
1 48053U 21025M   25225.48762340  .00004755  00000+0  12985-1 0  9996
2 48053  87.8984  21.3498 0001887  91.9883 268.1463 13.13444132213119
ONEWEB-0158             
1 48054U 21025N   25225.44701108 -.00000076  00000+0 -24266-3 0  9999
2 48054  87.8986  21.3371 0001914  93.4735 266.6613 13.13468481213232
ONEWEB-0157             
1 48055U 21025P   25225.47239830 -.00000188  00000+0 -54908-3 0  9991
2 48055  87.8982  21.3416 0001358 100.3113 259.8169 13.13470525213174
ONEWEB-0162             
1 48056U 21025Q   25225.52474331 -.00000072  00000+0 -23137-3 0  9997
2 48056  87.8985  21.3296 0001745  95.9536 264.1792 13.13470176213153
ONEWEB-0155             
1 48057U 21025R   25225.45546442 -.00000176  00000+0 -51696-3 0  9999
2 48057  87.8981  21.3513 0001631  89.8086 270.3229 13.13468828213287
ONEWEB-0149             
1 48058U 21025S   25225.47747974 -.00000037  00000+0 -13541-3 0  9998
2 48058  87.8982  21.3417 0001849 101.0373 259.0964 13.13471005213099
ONEWEB-0148             
1 48059U 21025T   25225.44023413  .00000130  00000+0  32149-3 0  9998
2 48059  87.8980  21.3734 0001788 115.7110 244.4204 13.13468196213219
ONEWEB-0160             
1 48060U 21025U   25225.45716951 -.00000159  00000+0 -47034-3 0  9999
2 48060  87.8985  21.3674 0002562  86.5372 273.6050 13.13470424213169
ONEWEB-0163             
1 48061U 21025V   25225.51811221  .00000114  00000+0  27689-3 0  9996
2 48061  87.8985  21.3356 0001450  96.8626 263.2669 13.13470378213291
ONEWEB-0159             
1 48062U 21025W   25225.50964065  .00000255  00000+0  66384-3 0  9992
2 48062  87.8986  21.3190 0001581  99.6664 260.4644 13.13470463213216
ONEWEB-0164             
1 48063U 21025X   25225.49102218  .00000282  00000+0  73706-3 0  9991
2 48063  87.8980  21.3325 0001809  93.1329 267.0007 13.13471387213190
ONEWEB-0167             
1 48064U 21025Y   25225.44278247  .00000068  00000+0  15175-3 0  9991
2 48064  87.8992  21.3751 0001243  70.6233 289.5031 13.13470338213172
ONEWEB-0166             
1 48065U 21025Z   25225.46562680 -.00000257  00000+0 -73886-3 0  9996
2 48065  87.8981  21.3220 0001750 100.3064 259.8262 13.13471548213257
ONEWEB-0151             
1 48066U 21025AA  25225.46732049 -.00000372  00000+0 -10534-2 0  9993
2 48066  87.8984  21.3455 0001710  89.8061 270.3264 13.13470360213199
ONEWEB-0170             
1 48067U 21025AB  25225.47578468 -.00000120  00000+0 -36357-3 0  9991
2 48067  87.8985  21.3499 0002008  80.9057 279.2299 13.13471207213150
ONEWEB-0168             
1 48068U 21025AC  25225.46054032 -.00000427  00000+0 -12040-2 0  9999
2 48068  87.8985  21.3342 0001595  97.1001 263.0309 13.13469472213162
ONEWEB-0173             
1 48069U 21025AD  25225.45208555 -.00000156  00000+0 -46185-3 0  9997
2 48069  87.8987  21.3440 0001325  91.0099 269.1182 13.13470183213409
