[{"OBJECT_NAME":"ONEWEB-0161","OBJECT_ID":"2021-025M","EPOCH":"2025-08-13T11:42:10.661760","MEAN_MOTION":13.13444132,"ECCENTRICITY":0.0001887,"INCLINATION":87.8984,"RA_OF_ASC_NODE":21.3498,"ARG_OF_PERICENTER":91.9883,"MEAN_ANOMALY":268.1463,"EPHEMERIS_TYPE":0,"CLASSIFICATION_TYPE":"U","NORAD_CAT_ID":48053,"ELEMENT_SET_NO":999,"REV_AT_EPOCH":21311,"BSTAR":0.012985,"MEAN_MOTION_DOT":4.755e-5,"MEAN_MOTION_DDOT":0},{"OBJECT_NAME":"ONEWEB-0158","OBJECT_ID":"2021-025N","EPOCH":"2025-08-13T10:43:41.757312","MEAN_MOTION":13.13468481,"ECCENTRICITY":0.0001914,"INCLINATION":87.8986,"RA_OF_ASC_NODE":21.3371,"ARG_OF_PERICENTER":93.4735,"MEAN_ANOMALY":266.6613,"EPHEMERIS_TYPE":0,"CLASSIFICATION_TYPE":"U","NORAD_CAT_ID":48054,"ELEMENT_SET_NO":999,"REV_AT_EPOCH":21323,"BSTAR":-0.00024266,"MEAN_MOTION_DOT":-7.6e-7,"MEAN_MOTION_DDOT":0},{"OBJECT_NAME":"ONEWEB-0157","OBJECT_ID":"2021-025P","EPOCH":"2025-08-13T11:20:15.213120","MEAN_MOTION":13.13470525,"ECCENTRICITY":0.0001358,"INCLINATION":87.8982,"RA_OF_ASC_NODE":21.3416,"ARG_OF_PERICENTER":100.3113,"MEAN_ANOMALY":259.8169,"EPHEMERIS_TYPE":0,"CLASSIFICATION_TYPE":"U","NORAD_CAT_ID":48055,"ELEMENT_SET_NO":999,"REV_AT_EPOCH":21317,"BSTAR":-0.00054908,"MEAN_MOTION_DOT":-1.88e-6,"MEAN_MOTION_DDOT":0},{"OBJECT_NAME":"ONEWEB-0162","OBJECT_ID":"2021-025Q","EPOCH":"2025-08-13T12:35:37.821984","MEAN_MOTION":13.13470176,"ECCENTRICITY":0.0001745,"INCLINATION":87.8985,"RA_OF_ASC_NODE":21.3296,"ARG_OF_PERICENTER":95.9536,"MEAN_ANOMALY":264.1792,"EPHEMERIS_TYPE":0,"CLASSIFICATION_TYPE":"U","NORAD_CAT_ID":48056,"ELEMENT_SET_NO":999,"REV_AT_EPOCH":21315,"BSTAR":-0.00023137,"MEAN_MOTION_DOT":-7.2e-7,"MEAN_MOTION_DDOT":0},{"OBJECT_NAME":"ONEWEB-0155","OBJECT_ID":"2021-025R","EPOCH":"2025-08-13T10:55:52.125888","MEAN_MOTION":13.13468828,"ECCENTRICITY":0.0001631,"INCLINATION":87.8981,"RA_OF_ASC_NODE":21.3513,"ARG_OF_PERICENTER":89.8086,"MEAN_ANOMALY":270.3229,"EPHEMERIS_TYPE":0,"CLASSIFICATION_TYPE":"U","NORAD_CAT_ID":48057,"ELEMENT_SET_NO":999,"REV_AT_EPOCH":21328,"BSTAR":-0.00051696,"MEAN_MOTION_DOT":-1.76e-6,"MEAN_MOTION_DDOT":0},{"OBJECT_NAME":"ONEWEB-0149","OBJECT_ID":"2021-025S","EPOCH":"2025-08-13T11:27:34.249536","MEAN_MOTION":13.13471005,"ECCENTRICITY":0.0001849,"INCLINATION":87.8982,"RA_OF_ASC_NODE":21.3417,"ARG_OF_PERICENTER":101.0373,"MEAN_ANOMALY":259.0964,"EPHEMERIS_TYPE":0,"CLASSIFICATION_TYPE":"U","NORAD_CAT_ID":48058,"ELEMENT_SET_NO":999,"REV_AT_EPOCH":21309,"BSTAR":-0.00013541,"MEAN_MOTION_DOT":-3.7e-7,"MEAN_MOTION_DDOT":0},{"OBJECT_NAME":"ONEWEB-0148","OBJECT_ID":"2021-025T","EPOCH":"2025-08-13T10:33:56.228832","MEAN_MOTION":13.13468196,"ECCENTRICITY":0.0001788,"INCLINATION":87.898,"RA_OF_ASC_NODE":21.3734,"ARG_OF_PERICENTER":115.711,"MEAN_ANOMALY":244.4204,"EPHEMERIS_TYPE":0,"CLASSIFICATION_TYPE":"U","NORAD_CAT_ID":48059,"ELEMENT_SET_NO":999,"REV_AT_EPOCH":21321,"BSTAR":0.00032149,"MEAN_MOTION_DOT":1.3e-6,"MEAN_MOTION_DDOT":0},{"OBJECT_NAME":"ONEWEB-0160","OBJECT_ID":"2021-025U","EPOCH":"2025-08-13T10:58:19.445664","MEAN_MOTION":13.13470424,"ECCENTRICITY":0.0002562,"INCLINATION":87.8985,"RA_OF_ASC_NODE":21.3674,"ARG_OF_PERICENTER":86.5372,"MEAN_ANOMALY":273.605,"EPHEMERIS_TYPE":0,"CLASSIFICATION_TYPE":"U","NORAD_CAT_ID":48060,"ELEMENT_SET_NO":999,"REV_AT_EPOCH":21316,"BSTAR":-0.00047034,"MEAN_MOTION_DOT":-1.59e-6,"MEAN_MOTION_DDOT":0},{"OBJECT_NAME":"ONEWEB-0163","OBJECT_ID":"2021-025V","EPOCH":"2025-08-13T12:26:04.894944","MEAN_MOTION":13.13470378,"ECCENTRICITY":0.000145,"INCLINATION":87.8985,"RA_OF_ASC_NODE":21.3356,"ARG_OF_PERICENTER":96.8626,"MEAN_ANOMALY":263.2669,"EPHEMERIS_TYPE":0,"CLASSIFICATION_TYPE":"U","NORAD_CAT_ID":48061,"ELEMENT_SET_NO":999,"REV_AT_EPOCH":21329,"BSTAR":0.00027689,"MEAN_MOTION_DOT":1.14e-6,"MEAN_MOTION_DDOT":0},{"OBJECT_NAME":"ONEWEB-0159","OBJECT_ID":"2021-025W","EPOCH":"2025-08-13T12:13:52.952160","MEAN_MOTION":13.13470463,"ECCENTRICITY":0.0001581,"INCLINATION":87.8986,"RA_OF_ASC_NODE":21.319,"ARG_OF_PERICENTER":99.6664,"MEAN_ANOMALY":260.4644,"EPHEMERIS_TYPE":0,"CLASSIFICATION_TYPE":"U","NORAD_CAT_ID":48062,"ELEMENT_SET_NO":999,"REV_AT_EPOCH":21321,"BSTAR":0.00066384,"MEAN_MOTION_DOT":2.55e-6,"MEAN_MOTION_DDOT":0},{"OBJECT_NAME":"ONEWEB-0164","OBJECT_ID":"2021-025X","EPOCH":"2025-08-13T11:47:04.316352","MEAN_MOTION":13.13471387,"ECCENTRICITY":0.0001809,"INCLINATION":87.898,"RA_OF_ASC_NODE":21.3325,"ARG_OF_PERICENTER":93.1329,"MEAN_ANOMALY":267.0007,"EPHEMERIS_TYPE":0,"CLASSIFICATION_TYPE":"U","NORAD_CAT_ID":48063,"ELEMENT_SET_NO":999,"REV_AT_EPOCH":21319,"BSTAR":0.00073706,"MEAN_MOTION_DOT":2.82e-6,"MEAN_MOTION_DDOT":0},{"OBJECT_NAME":"ONEWEB-0167","OBJECT_ID":"2021-025Y","EPOCH":"2025-08-13T10:37:36.405408","MEAN_MOTION":13.13470338,"ECCENTRICITY":0.0001243,"INCLINATION":87.8992,"RA_OF_ASC_NODE":21.3751,"ARG_OF_PERICENTER":70.6233,"MEAN_ANOMALY":289.5031,"EPHEMERIS_TYPE":0,"CLASSIFICATION_TYPE":"U","NORAD_CAT_ID":48064,"ELEMENT_SET_NO":999,"REV_AT_EPOCH":21317,"BSTAR":0.00015175,"MEAN_MOTION_DOT":6.8e-7,"MEAN_MOTION_DDOT":0},{"OBJECT_NAME":"ONEWEB-0166","OBJECT_ID":"2021-025Z","EPOCH":"2025-08-13T11:10:30.155520","MEAN_MOTION":13.13471548,"ECCENTRICITY":0.000175,"INCLINATION":87.8981,"RA_OF_ASC_NODE":21.322,"ARG_OF_PERICENTER":100.3064,"MEAN_ANOMALY":259.8262,"EPHEMERIS_TYPE":0,"CLASSIFICATION_TYPE":"U","NORAD_CAT_ID":48065,"ELEMENT_SET_NO":999,"REV_AT_EPOCH":21325,"BSTAR":-0.00073886,"MEAN_MOTION_DOT":-2.57e-6,"MEAN_MOTION_DDOT":0},{"OBJECT_NAME":"ONEWEB-0151","OBJECT_ID":"2021-025AA","EPOCH":"2025-08-13T11:12:56.490336","MEAN_MOTION":13.1347036,"ECCENTRICITY":0.000171,"INCLINATION":87.8984,"RA_OF_ASC_NODE":21.3455,"ARG_OF_PERICENTER":89.8061,"MEAN_ANOMALY":270.3264,"EPHEMERIS_TYPE":0,"CLASSIFICATION_TYPE":"U","NORAD_CAT_ID":48066,"ELEMENT_SET_NO":999,"REV_AT_EPOCH":21319,"BSTAR":-0.0010534,"MEAN_MOTION_DOT":-3.72e-6,"MEAN_MOTION_DDOT":0},{"OBJECT_NAME":"ONEWEB-0170","OBJECT_ID":"2021-025AB","EPOCH":"2025-08-13T11:25:07.796352","MEAN_MOTION":13.13471207,"ECCENTRICITY":0.0002008,"INCLINATION":87.8985,"RA_OF_ASC_NODE":21.3499,"ARG_OF_PERICENTER":80.9057,"MEAN_ANOMALY":279.2299,"EPHEMERIS_TYPE":0,"CLASSIFICATION_TYPE":"U","NORAD_CAT_ID":48067,"ELEMENT_SET_NO":999,"REV_AT_EPOCH":21315,"BSTAR":-0.00036357,"MEAN_MOTION_DOT":-1.2e-6,"MEAN_MOTION_DDOT":0},{"OBJECT_NAME":"ONEWEB-0168","OBJECT_ID":"2021-025AC","EPOCH":"2025-08-13T11:03:10.683648","MEAN_MOTION":13.13469472,"ECCENTRICITY":0.0001595,"INCLINATION":87.8985,"RA_OF_ASC_NODE":21.3342,"ARG_OF_PERICENTER":97.1001,"MEAN_ANOMALY":263.0309,"EPHEMERIS_TYPE":0,"CLASSIFICATION_TYPE":"U","NORAD_CAT_ID":48068,"ELEMENT_SET_NO":999,"REV_AT_EPOCH":21316,"BSTAR":-0.001204,"MEAN_MOTION_DOT":-4.27e-6,"MEAN_MOTION_DDOT":0},{"OBJECT_NAME":"ONEWEB-0173","OBJECT_ID":"2021-025AD","EPOCH":"2025-08-13T10:51:00.191520","MEAN_MOTION":13.13470183,"ECCENTRICITY":0.0001325,"INCLINATION":87.8987,"RA_OF_ASC_NODE":21.344,"ARG_OF_PERICENTER":91.0099,"MEAN_ANOMALY":269.1182,"EPHEMERIS_TYPE":0,"CLASSIFICATION_TYPE":"U","NORAD_CAT_ID":48069,"ELEMENT_SET_NO":999,"REV_AT_EPOCH":21340,"BSTAR":-0.00046185,"MEAN_MOTION_DOT":-1.56e-6,"MEAN_MOTION_DDOT":0}]
